{
    "links": {
        "self": "http://www.neowsapp.com/rest/v1/neo/3132516?api_key=iIulBulltgU6a56xZRHN4H3l9WmuAYTsLGpBGhQ2"
    },
    "id": "3132516",
    "neo_reference_id": "3132516",
    "name": "(2002 PX39)",
    "designation": "2002 PX39",
    "nasa_jpl_url": "http://ssd.jpl.nasa.gov/sbdb.cgi?sstr=3132516",
    "absolute_magnitude_h": 23.4,
    "estimated_diameter": {
        "kilometers": {
            "estimated_diameter_min": 0.0555334912,
            "estimated_diameter_max": 0.1241766613
        },
        "meters": {
            "estimated_diameter_min": 55.5334911581,
            "estimated_diameter_max": 124.1766612574
        },
        "miles": {
            "estimated_diameter_min": 0.0345069009,
            "estimated_diameter_max": 0.0771597762
        },
        "feet": {
            "estimated_diameter_min": 182.1964991311,
            "estimated_diameter_max": 407.4037573197
        }
    },
    "is_potentially_hazardous_asteroid": false,
    "close_approach_data": [
        {
            "close_approach_date": "2002-07-28",
            "close_approach_date_full": "2002-Jul-28 08:31",
            "epoch_date_close_approach": 1027845060000,
            "relative_velocity": {
                "kilometers_per_second": "10.1099585441",
                "kilometers_per_hour": "36395.8507587978",
                "miles_per_hour": "22614.9662673208"
            },
            "miss_distance": {
                "astronomical": "0.0455527452",
                "lunar": "17.7200178828",
                "kilometers": "6814593.654572724",
                "miles": "4234392.1455786312"
            },
            "orbiting_body": "Earth"
        }
    ],
    "orbital_data": {
        "orbit_id": "16",
        "orbit_determination_date": "2017-04-06 09:14:59",
        "first_observation_date": "2002-07-26",
        "last_observation_date": "2002-09-04",
        "data_arc_in_days": 40,
        "observations_used": 59,
        "orbit_uncertainty": "7",
        "minimum_orbit_intersection": ".0116563",
        "jupiter_tisserand_invariant": "3.222",
        "epoch_osculation": "2459000.5",
        "eccentricity": ".5937362641042717",
        "semi_major_axis": "2.459486894503719",
        "inclination": "1.801700505173877",
        "ascending_node_longitude": "135.306272170555",
        "orbital_period": "1408.851426275405",
        "perihelion_distance": ".9992003341476637",
        "perihelion_argument": "140.7067556299316",
        "aphelion_distance": "3.919773454859774",
        "perihelion_time": "2459507.071913557812",
        "mean_anomaly": "230.5570470529068",
        "mean_motion": ".2555272992495282",
        "equinox": "J2000",
        "orbit_class": {
            "orbit_class_type": "APO",
            "orbit_class_description": "Near-Earth asteroid orbits which cross the Earth’s orbit similar to that of 1862 Apollo",
            "orbit_class_range": "a (semi-major axis) > 1.0 AU; q (perihelion) < 1.017 AU"
        }
    },
    "is_sentry_object": false
}